[{"OBJECT_NAME":"STARLINK-5496","OBJECT_ID":"2023-083L","EPOCH":"2026-03-08T02:50:39.079104","MEAN_MOTION":15.02537731,"ECCENTRICITY":0.00013242,"INCLINATION":43.004,"RA_OF_ASC_NODE":90.3496,"ARG_OF_PERICENTER":265.0186,"MEAN_ANOMALY":95.0505,"EPHEMERIS_TYPE":0,"CLASSIFICATION_TYPE":"U","NORAD_CAT_ID":56886,"ELEMENT_SET_NO":999,"REV_AT_EPOCH":15143,"BSTAR":7.0957663e-5,"MEAN_MOTION_DOT":7.55e-6,"MEAN_MOTION_DDOT":0},{"OBJECT_NAME":"SL-8 DEB","OBJECT_ID":"1977-119E","EPOCH":"2026-03-08T21:50:26.826144","MEAN_MOTION":15.02521055,"ECCENTRICITY":0.00060399,"INCLINATION":74.0225,"RA_OF_ASC_NODE":39.6743,"ARG_OF_PERICENTER":252.2066,"MEAN_ANOMALY":138.7099,"EPHEMERIS_TYPE":0,"CLASSIFICATION_TYPE":"U","NORAD_CAT_ID":18512,"ELEMENT_SET_NO":999,"REV_AT_EPOCH":19339,"BSTAR":0.0013899008,"MEAN_MOTION_DOT":0.00018486,"MEAN_MOTION_DDOT":0}]
